{"type": "FeatureCollection", "features": [ {"type": "Feature", "properties": {"norad_id": 40938, "name": "BEIDOU-3S IGSO-2S (C56)", "group": "gnss", "lat": 48.752661794260455, "lon": 4.277978768797313, "alt_km": 35780.00967252215, "timestamp": "2025-12-22T11:33:20.682538+00:00", "meta": {"OBJECT_NAME": "BEIDOU-3S IGSO-2S (C56)", "OBJECT_ID": "2015-053A", "EPOCH": "2025-12-21T17:04:25.482720", "MEAN_MOTION": 1.00268185, "ECCENTRICITY": 0.0060602, "INCLINATION": 49.4967, "RA_OF_ASC_NODE": 260.9003, "ARG_OF_PERICENTER": 188.6932, "MEAN_ANOMALY": 352.8862, "EPHEMERIS_TYPE": 0, "CLASSIFICATION_TYPE": "U", "NORAD_CAT_ID": 40938, "ELEMENT_SET_NO": 999, "REV_AT_EPOCH": 3757, "BSTAR": 0, "MEAN_MOTION_DOT": -1.05e-06, "MEAN_MOTION_DDOT": 0}, "tle": {"line1": "1 40938U 15053A   25355.71140605 -.00000105  00000+0  00000+0 0  9997", "line2": "2 40938  49.4967 260.9003 0060602 188.6932 352.8862  1.00268185 37573"}}, "geometry": {"type": "Point", "coordinates": [4.277978768797313, 48.752661794260455]}}, {"type": "Feature", "properties": {"norad_id": 41019, "name": "GPS BIIF-11 (PRN 10)", "group": "gnss", "lat": 31.630899396081215, "lon": -166.09057171864302, "alt_km": 20169.979717379858, "timestamp": "2025-12-22T11:33:20.682549+00:00", "meta": {"OBJECT_NAME": "GPS BIIF-11 (PRN 10)", "OBJECT_ID": "2015-062A", "EPOCH": "2025-12-20T06:55:31.863072", "MEAN_MOTION": 2.00567218, "ECCENTRICITY": 0.0111019, "INCLINATION": 56.8376, "RA_OF_ASC_NODE": 37.7103, "ARG_OF_PERICENTER": 230.1421, "MEAN_ANOMALY": 128.9419, "EPHEMERIS_TYPE": 0, "CLASSIFICATION_TYPE": "U", "NORAD_CAT_ID": 41019, "ELEMENT_SET_NO": 999, "REV_AT_EPOCH": 7424, "BSTAR": 0, "MEAN_MOTION_DOT": -5.7e-07, "MEAN_MOTION_DDOT": 0}, "tle": {"line1": "1 41019U 15062A   25354.28856323 -.00000057  00000+0  00000+0 0  9996", "line2": "2 41019  56.8376  37.7103 0111019 230.1421 128.9419  2.00567218 74241"}}, "geometry": {"type": "Point", "coordinates": [-166.09057171864302, 31.630899396081215]}}, {"type": "Feature", "properties": {"norad_id": 41028, "name": "GSAT-15 (GAGAN/PRN 139)", "group": "gnss", "lat": 0.014432672860101248, "lon": -1.8529591495445616, "alt_km": 35791.01454930124, "timestamp": "2025-12-22T11:33:20.682563+00:00", "meta": {"OBJECT_NAME": "GSAT-15 (GAGAN/PRN 139)", "OBJECT_ID": "2015-065A", "EPOCH": "2025-12-22T03:20:19.581792", "MEAN_MOTION": 1.00272616, "ECCENTRICITY": 0.0002353, "INCLINATION": 0.0258, "RA_OF_ASC_NODE": 273.1374, "ARG_OF_PERICENTER": 323.6207, "MEAN_ANOMALY": 357.7802, "EPHEMERIS_TYPE": 0, "CLASSIFICATION_TYPE": "U", "NORAD_CAT_ID": 41028, "ELEMENT_SET_NO": 999, "REV_AT_EPOCH": 3702, "BSTAR": 0, "MEAN_MOTION_DOT": -2.36e-06, "MEAN_MOTION_DDOT": 0}, "tle": {"line1": "1 41028U 15065A   25356.13911553 -.00000236  00000+0  00000+0 0  9991", "line2": "2 41028   0.0258 273.1374 0002353 323.6207 357.7802  1.00272616 37024"}}, "geometry": {"type": "Point", "coordinates": [-1.8529591495445616, 0.014432672860101248]}}, {"type": "Feature", "properties": {"norad_id": 41174, "name": "GSAT0209 (GALILEO 12)", "group": "gnss", "lat": 2.243474413670434, "lon": 107.64084544917877, "alt_km": 23215.199404270974, "timestamp": "2025-12-22T11:33:20.682574+00:00", "meta": {"OBJECT_NAME": "GSAT0209 (GALILEO 12)", "OBJECT_ID": "2015-079A", "EPOCH": "2025-12-20T17:12:54.927360", "MEAN_MOTION": 1.70474584, "ECCENTRICITY": 0.00024263, "INCLINATION": 55.7172, "RA_OF_ASC_NODE": 106.1622, "ARG_OF_PERICENTER": 346.435, "MEAN_ANOMALY": 13.5264, "EPHEMERIS_TYPE": 0, "CLASSIFICATION_TYPE": "U", "NORAD_CAT_ID": 41174, "ELEMENT_SET_NO": 999, "REV_AT_EPOCH": 6173, "BSTAR": 0, "MEAN_MOTION_DOT": 0, "MEAN_MOTION_DDOT": 0}, "tle": {"line1": "1 41174U 15079A   25354.71730240  .00000000  00000+0  00000+0 0  9990", "line2": "2 41174  55.7172 106.1622 0002426 346.4350  13.5264  1.70474584 61731"}}, "geometry": {"type": "Point", "coordinates": [107.64084544917877, 2.243474413670434]}}, {"type": "Feature", "properties": {"norad_id": 41175, "name": "GSAT0208 (GALILEO 11)", "group": "gnss", "lat": -37.62348435332149, "lon": -42.223268511769206, "alt_km": 23230.26140878134, "timestamp": "2025-12-22T11:33:20.682588+00:00", "meta": {"OBJECT_NAME": "GSAT0208 (GALILEO 11)", "OBJECT_ID": "2015-079B", "EPOCH": "2025-12-20T08:25:16.296384", "MEAN_MOTION": 1.70474393, "ECCENTRICITY": 0.00018076, "INCLINATION": 55.7157, "RA_OF_ASC_NODE": 106.1693, "ARG_OF_PERICENTER": 359.1842, "MEAN_ANOMALY": 0.7815, "EPHEMERIS_TYPE": 0, "CLASSIFICATION_TYPE": "U", "NORAD_CAT_ID": 41175, "ELEMENT_SET_NO": 999, "REV_AT_EPOCH": 6214, "BSTAR": 0, "MEAN_MOTION_DOT": -2e-08, "MEAN_MOTION_DDOT": 0}, "tle": {"line1": "1 41175U 15079B   25354.35088306 -.00000002  00000+0  00000+0 0  9993", "line2": "2 41175  55.7157 106.1693 0001807 359.1842   0.7815  1.70474393 62146"}}, "geometry": {"type": "Point", "coordinates": [-42.223268511769206, -37.62348435332149]}}, {"type": "Feature", "properties": {"norad_id": 41241, "name": "IRNSS-1E", "group": "gnss", "lat": -22.900720138962466, "lon": 21.523951520126587, "alt_km": 35842.51361669705, "timestamp": "2025-12-22T11:33:20.682600+00:00", "meta": {"OBJECT_NAME": "IRNSS-1E", "OBJECT_ID": "2016-003A", "EPOCH": "2025-12-20T14:57:09.230400", "MEAN_MOTION": 1.00270447, "ECCENTRICITY": 0.0021619, "INCLINATION": 32.8427, "RA_OF_ASC_NODE": 62.3382, "ARG_OF_PERICENTER": 188.6599, "MEAN_ANOMALY": 174.4859, "EPHEMERIS_TYPE": 0, "CLASSIFICATION_TYPE": "U", "NORAD_CAT_ID": 41241, "ELEMENT_SET_NO": 999, "REV_AT_EPOCH": 3629, "BSTAR": 0, "MEAN_MOTION_DOT": -3e-06, "MEAN_MOTION_DDOT": 0}, "tle": {"line1": "1 41241U 16003A   25354.62302350 -.00000300  00000+0  00000+0 0  9994", "line2": "2 41241  32.8427  62.3382 0021619 188.6599 174.4859  1.00270447 36292"}}, "geometry": {"type": "Point", "coordinates": [21.523951520126587, -22.900720138962466]}}, {"type": "Feature", "properties": {"norad_id": 41328, "name": "GPS BIIF-12 (PRN 32)", "group": "gnss", "lat": 54.709206765001795, "lon": 173.2306559913068, "alt_km": 20408.730999143132, "timestamp": "2025-12-22T11:33:20.682611+00:00", "meta": {"OBJECT_NAME": "GPS BIIF-12 (PRN 32)", "OBJECT_ID": "2016-007A", "EPOCH": "2025-12-21T08:50:32.363232", "MEAN_MOTION": 2.00560305, "ECCENTRICITY": 0.00925842, "INCLINATION": 55.4109, "RA_OF_ASC_NODE": 96.5146, "ARG_OF_PERICENTER": 243.788, "MEAN_ANOMALY": 115.2562, "EPHEMERIS_TYPE": 0, "CLASSIFICATION_TYPE": "U", "NORAD_CAT_ID": 41328, "ELEMENT_SET_NO": 999, "REV_AT_EPOCH": 7227, "BSTAR": 0, "MEAN_MOTION_DOT": -8e-08, "MEAN_MOTION_DDOT": 0}, "tle": {"line1": "1 41328U 16007A   25355.36843013 -.00000008  00000+0  00000+0 0  9997", "line2": "2 41328  55.4109  96.5146 0092584 243.7880 115.2562  2.00560305 72276"}}, "geometry": {"type": "Point", "coordinates": [173.2306559913068, 54.709206765001795]}}, {"type": "Feature", "properties": {"norad_id": 41330, "name": "COSMOS 2514 (751)", "group": "gnss", "lat": 64.03916669888703, "lon": 31.2503568263929, "alt_km": 19145.081393387234, "timestamp": "2025-12-22T11:33:20.682622+00:00", "meta": {"OBJECT_NAME": "COSMOS 2514 (751)", "OBJECT_ID": "2016-008A", "EPOCH": "2025-12-21T10:27:05.552352", "MEAN_MOTION": 2.13102677, "ECCENTRICITY": 0.0011723, "INCLINATION": 65.1288, "RA_OF_ASC_NODE": 319.1063, "ARG_OF_PERICENTER": 220.1275, "MEAN_ANOMALY": 139.7798, "EPHEMERIS_TYPE": 0, "CLASSIFICATION_TYPE": "U", "NORAD_CAT_ID": 41330, "ELEMENT_SET_NO": 999, "REV_AT_EPOCH": 7683, "BSTAR": 0, "MEAN_MOTION_DOT": -4.6e-07, "MEAN_MOTION_DDOT": 0}, "tle": {"line1": "1 41330U 16008A   25355.43548093 -.00000046  00000+0  00000+0 0  9991", "line2": "2 41330  65.1288 319.1063 0011723 220.1275 139.7798  2.13102677 76836"}}, "geometry": {"type": "Point", "coordinates": [31.2503568263929, 64.03916669888703]}}, {"type": "Feature", "properties": {"norad_id": 41384, "name": "IRNSS-1F", "group": "gnss", "lat": -1.3852883465263428, "lon": -62.89772838232691, "alt_km": 35691.69312042478, "timestamp": "2025-12-22T11:33:20.682634+00:00", "meta": {"OBJECT_NAME": "IRNSS-1F", "OBJECT_ID": "2016-015A", "EPOCH": "2025-12-21T23:49:21.941184", "MEAN_MOTION": 1.00277151, "ECCENTRICITY": 0.0022658, "INCLINATION": 4.9043, "RA_OF_ASC_NODE": 101.0685, "ARG_OF_PERICENTER": 181.8382, "MEAN_ANOMALY": 197.6998, "EPHEMERIS_TYPE": 0, "CLASSIFICATION_TYPE": "U", "NORAD_CAT_ID": 41384, "ELEMENT_SET_NO": 999, "REV_AT_EPOCH": 3589, "BSTAR": 0, "MEAN_MOTION_DOT": 1.77e-06, "MEAN_MOTION_DDOT": 0}, "tle": {"line1": "1 41384U 16015A   25355.99261506  .00000177  00000+0  00000+0 0  9994", "line2": "2 41384   4.9043 101.0685 0022658 181.8382 197.6998  1.00277151 35895"}}, "geometry": {"type": "Point", "coordinates": [-62.89772838232691, -1.3852883465263428]}}, {"type": "Feature", "properties": {"norad_id": 41434, "name": "BEIDOU-2 IGSO-6 (C13)", "group": "gnss", "lat": -34.65920193293877, "lon": 16.28853703473785, "alt_km": 35777.43692178675, "timestamp": "2025-12-22T11:33:20.682647+00:00", "meta": {"OBJECT_NAME": "BEIDOU-2 IGSO-6 (C13)", "OBJECT_ID": "2016-021A", "EPOCH": "2025-12-18T14:33:38.837664", "MEAN_MOTION": 1.00292299, "ECCENTRICITY": 0.00610054, "INCLINATION": 59.9732, "RA_OF_ASC_NODE": 39.8392, "ARG_OF_PERICENTER": 230.2031, "MEAN_ANOMALY": 129.1398, "EPHEMERIS_TYPE": 0, "CLASSIFICATION_TYPE": "U", "NORAD_CAT_ID": 41434, "ELEMENT_SET_NO": 999, "REV_AT_EPOCH": 3566, "BSTAR": 0, "MEAN_MOTION_DOT": -1.41e-06, "MEAN_MOTION_DDOT": 0}, "tle": {"line1": "1 41434U 16021A   25352.60669951 -.00000141  00000+0  00000+0 0  9990", "line2": "2 41434  59.9732  39.8392 0061005 230.2031 129.1398  1.00292299 35667"}}, "geometry": {"type": "Point", "coordinates": [16.28853703473785, -34.65920193293877]}}]}